start=new Date('2022-09-12T00:00:00.000Z').valueOf();
sats=[{"EPHEMERIS_TYPE":"0","OBJECT_TYPE":"PAYLOAD","REV_AT_EPOCH":"130","TIME_SYSTEM":"UTC","TLE_LINE1":"1 52872U 22062AU  22254.91667824 -.01072916  00000-0 -26310-1 0  9995","TLE_LINE2":"2 52872  53.2174 338.7084 0001504  53.9035 132.3538 15.42739773  1303","EPOCH":"2022-09-11T22:00:00.999936","PERIAPSIS":"437.004","SEMIMAJOR_AXIS":"6816.164","MEAN_MOTION_DDOT":"0.0000000000000","OBJECT_ID":"2022-062AU","RA_OF_ASC_NODE":"338.7084","SITE":"AFETR","LAUNCH_DATE":"2022-06-17","COUNTRY_CODE":"US","APOAPSIS":"439.055","MEAN_MOTION":"15.42739773","INCLINATION":"53.2174","MEAN_MOTION_DOT":"-0.01072916","MEAN_ANOMALY":"132.3538","ELEMENT_SET_NO":"999","DECAY_DATE":null,"OBJECT_NAME":"STARLINK-4213","REF_FRAME":"TEME","GP_ID":"212359348","ECCENTRICITY":"0.00015040","RCS_SIZE":"LARGE","CENTER_NAME":"EARTH","PERIOD":"93.340","MEAN_ELEMENT_THEORY":"SGP4","FILE":"3569361","NORAD_CAT_ID":"52872","BSTAR":"-0.02631000000000","CLASSIFICATION_TYPE":"U","ARG_OF_PERICENTER":"53.9035"},{"BSTAR":"-0.02529900000000","ARG_OF_PERICENTER":"45.5078","CLASSIFICATION_TYPE":"U","NORAD_CAT_ID":"52873","FILE":"3569361","MEAN_ELEMENT_THEORY":"SGP4","RCS_SIZE":"LARGE","PERIOD":"93.269","CENTER_NAME":"EARTH","ECCENTRICITY":"0.00016390","GP_ID":"212359042","REF_FRAME":"TEME","OBJECT_NAME":"STARLINK-4211","DECAY_DATE":null,"ELEMENT_SET_NO":"999","MEAN_ANOMALY":"156.3693","MEAN_MOTION_DOT":"-0.01059049","INCLINATION":"53.2174","MEAN_MOTION":"15.43921075","APOAPSIS":"435.669","COUNTRY_CODE":"US","LAUNCH_DATE":"2022-06-17","SITE":"AFETR","RA_OF_ASC_NODE":"338.7564","OBJECT_ID":"2022-062AV","PERIAPSIS":"433.436","EPOCH":"2022-09-11T22:00:00.999936","SEMIMAJOR_AXIS":"6812.687","MEAN_MOTION_DDOT":"0.0000000000000","TLE_LINE2":"2 52873  53.2174 338.7564 0001639  45.5078 156.3693 15.43921075  1307","TLE_LINE1":"1 52873U 22062AV  22254.91667824 -.01059049  00000-0 -25299-1 0  9993","TIME_SYSTEM":"UTC","REV_AT_EPOCH":"130","OBJECT_TYPE":"PAYLOAD","EPHEMERIS_TYPE":"0"},{"OBJECT_ID":"2022-062AW","RA_OF_ASC_NODE":"338.7204","LAUNCH_DATE":"2022-06-17","SITE":"AFETR","APOAPSIS":"438.295","COUNTRY_CODE":"US","EPHEMERIS_TYPE":"0","REV_AT_EPOCH":"130","OBJECT_TYPE":"PAYLOAD","TIME_SYSTEM":"UTC","MEAN_MOTION_DDOT":"0.0000000000000","PERIAPSIS":"436.025","SEMIMAJOR_AXIS":"6815.295","EPOCH":"2022-09-11T22:00:00.999936","TLE_LINE2":"2 52874  53.2174 338.7204 0001665  44.5796 145.7892 15.43035066  1303","TLE_LINE1":"1 52874U 22062AW  22254.91667824 -.01073097  00000-0 -26052-1 0  9991","ECCENTRICITY":"0.00016650","GP_ID":"212359611","REF_FRAME":"TEME","RCS_SIZE":"LARGE","PERIOD":"93.323","CENTER_NAME":"EARTH","FILE":"3569361","NORAD_CAT_ID":"52874","MEAN_ELEMENT_THEORY":"SGP4","ARG_OF_PERICENTER":"44.5796","BSTAR":"-0.02605200000000","CLASSIFICATION_TYPE":"U","MEAN_MOTION_DOT":"-0.01073097","MEAN_MOTION":"15.43035066","INCLINATION":"53.2174","MEAN_ANOMALY":"145.7892","DECAY_DATE":null,"ELEMENT_SET_NO":"999","OBJECT_NAME":"STARLINK-4210"},{"GP_ID":"212360116","ECCENTRICITY":"0.00017510","REF_FRAME":"TEME","RCS_SIZE":"LARGE","PERIOD":"93.251","CENTER_NAME":"EARTH","NORAD_CAT_ID":"52875","FILE":"3569361","MEAN_ELEMENT_THEORY":"SGP4","CLASSIFICATION_TYPE":"U","BSTAR":"-0.02504900000000","ARG_OF_PERICENTER":"40.3638","MEAN_MOTION_DOT":"-0.01059236","INCLINATION":"53.2174","MEAN_MOTION":"15.44216395","MEAN_ANOMALY":"165.0741","ELEMENT_SET_NO":"999","DECAY_DATE":null,"OBJECT_NAME":"STARLINK-4193","OBJECT_ID":"2022-062AX","RA_OF_ASC_NODE":"338.7681","LAUNCH_DATE":"2022-06-17","SITE":"AFETR","APOAPSIS":"434.876","COUNTRY_CODE":"US","EPHEMERIS_TYPE":"0","REV_AT_EPOCH":"130","OBJECT_TYPE":"PAYLOAD","TIME_SYSTEM":"UTC","PERIAPSIS":"432.491","MEAN_MOTION_DDOT":"0.0000000000000","SEMIMAJOR_AXIS":"6811.819","EPOCH":"2022-09-11T22:00:00.999936","TLE_LINE2":"2 52875  53.2174 338.7681 0001751  40.3638 165.0741 15.44216395  1303","TLE_LINE1":"1 52875U 22062AX  22254.91667824 -.01059236  00000-0 -25049-1 0  9996"},{"ECCENTRICITY":"0.00017010","GP_ID":"212359763","REF_FRAME":"TEME","RCS_SIZE":"LARGE","PERIOD":"93.287","CENTER_NAME":"EARTH","NORAD_CAT_ID":"52876","FILE":"3569361","MEAN_ELEMENT_THEORY":"SGP4","BSTAR":"-0.02554700000000","CLASSIFICATION_TYPE":"U","ARG_OF_PERICENTER":"42.7607","MEAN_MOTION_DOT":"-0.01058760","INCLINATION":"53.2174","MEAN_MOTION":"15.43625739","MEAN_ANOMALY":"155.4180","DECAY_DATE":null,"ELEMENT_SET_NO":"999","OBJECT_NAME":"STARLINK-4200","OBJECT_ID":"2022-062AY","RA_OF_ASC_NODE":"338.7443","LAUNCH_DATE":"2022-06-17","SITE":"AFETR","APOAPSIS":"436.580","COUNTRY_CODE":"US","EPHEMERIS_TYPE":"0","REV_AT_EPOCH":"130","OBJECT_TYPE":"PAYLOAD","TIME_SYSTEM":"UTC","PERIAPSIS":"434.262","MEAN_MOTION_DDOT":"0.0000000000000","SEMIMAJOR_AXIS":"6813.556","EPOCH":"2022-09-11T22:00:00.999936","TLE_LINE2":"2 52876  53.2174 338.7443 0001701  42.7607 155.4180 15.43625739  1302","TLE_LINE1":"1 52876U 22062AY  22254.91667824 -.01058760  00000-0 -25547-1 0  9991"},{"TIME_SYSTEM":"UTC","TLE_LINE2":"2 52877  53.2175 338.8553 0001497  51.9942 170.6671 15.46348450  1302","TLE_LINE1":"1 52877U 22062AZ  22254.91667824 -.01060735  00000-0 -23312-1 0  9995","SEMIMAJOR_AXIS":"6805.556","PERIAPSIS":"426.402","EPOCH":"2022-09-11T22:00:00.999936","MEAN_MOTION_DDOT":"0.0000000000000","EPHEMERIS_TYPE":"0","OBJECT_TYPE":"PAYLOAD","REV_AT_EPOCH":"130","SITE":"AFETR","LAUNCH_DATE":"2022-06-17","COUNTRY_CODE":"US","APOAPSIS":"428.440","OBJECT_ID":"2022-062AZ","RA_OF_ASC_NODE":"338.8553","ELEMENT_SET_NO":"999","DECAY_DATE":null,"OBJECT_NAME":"STARLINK-4214","MEAN_MOTION":"15.46348450","INCLINATION":"53.2175","MEAN_MOTION_DOT":"-0.01060735","MEAN_ANOMALY":"170.6671","MEAN_ELEMENT_THEORY":"SGP4","FILE":"3569361","NORAD_CAT_ID":"52877","CLASSIFICATION_TYPE":"U","BSTAR":"-0.02331200000000","ARG_OF_PERICENTER":"51.9942","ECCENTRICITY":"0.00014970","GP_ID":"212359458","REF_FRAME":"TEME","RCS_SIZE":"LARGE","PERIOD":"93.123","CENTER_NAME":"EARTH"},{"OBJECT_ID":"2022-062BA","RA_OF_ASC_NODE":"338.7795","LAUNCH_DATE":"2022-06-17","SITE":"AFETR","APOAPSIS":"434.117","COUNTRY_CODE":"US","EPHEMERIS_TYPE":"0","REV_AT_EPOCH":"130","OBJECT_TYPE":"PAYLOAD","TIME_SYSTEM":"UTC","SEMIMAJOR_AXIS":"6810.950","PERIAPSIS":"431.513","EPOCH":"2022-09-11T22:00:00.999936","MEAN_MOTION_DDOT":"0.0000000000000","TLE_LINE1":"1 52878U 22062BA  22254.91667824 -.01059594  00000-0 -24805-1 0  9995","TLE_LINE2":"2 52878  53.2174 338.7795 0001911  34.5698 174.2912 15.44511758  1304","REF_FRAME":"TEME","GP_ID":"212359197","ECCENTRICITY":"0.00019110","RCS_SIZE":"LARGE","PERIOD":"93.233","CENTER_NAME":"EARTH","NORAD_CAT_ID":"52878","FILE":"3569361","MEAN_ELEMENT_THEORY":"SGP4","CLASSIFICATION_TYPE":"U","BSTAR":"-0.02480500000000","ARG_OF_PERICENTER":"34.5698","MEAN_MOTION_DOT":"-0.01059594","INCLINATION":"53.2174","MEAN_MOTION":"15.44511758","MEAN_ANOMALY":"174.2912","DECAY_DATE":null,"ELEMENT_SET_NO":"999","OBJECT_NAME":"STARLINK-4171"},{"LAUNCH_DATE":"2022-06-17","SITE":"AFETR","APOAPSIS":"425.932","COUNTRY_CODE":"US","OBJECT_ID":"2022-062BB","RA_OF_ASC_NODE":"338.8881","TIME_SYSTEM":"UTC","PERIAPSIS":"423.714","EPOCH":"2022-09-11T22:00:00.999936","SEMIMAJOR_AXIS":"6802.958","MEAN_MOTION_DDOT":"0.0000000000000","TLE_LINE2":"2 52879  53.2174 338.8881 0001630  43.6399 185.8953 15.47234365  1301","TLE_LINE1":"1 52879U 22062BB  22254.91667824 -.01061350  00000-0 -22617-1 0  9998","EPHEMERIS_TYPE":"0","REV_AT_EPOCH":"130","OBJECT_TYPE":"PAYLOAD","FILE":"3569361","NORAD_CAT_ID":"52879","MEAN_ELEMENT_THEORY":"SGP4","BSTAR":"-0.02261700000000","ARG_OF_PERICENTER":"43.6399","CLASSIFICATION_TYPE":"U","GP_ID":"212359919","REF_FRAME":"TEME","ECCENTRICITY":"0.00016300","RCS_SIZE":"LARGE","PERIOD":"93.069","CENTER_NAME":"EARTH","DECAY_DATE":null,"ELEMENT_SET_NO":"999","OBJECT_NAME":"STARLINK-4139","MEAN_MOTION_DOT":"-0.01061350","MEAN_MOTION":"15.47234365","INCLINATION":"53.2174","MEAN_ANOMALY":"185.8953"},{"RA_OF_ASC_NODE":"338.8769","OBJECT_ID":"2022-062BC","COUNTRY_CODE":"US","APOAPSIS":"427.284","SITE":"AFETR","LAUNCH_DATE":"2022-06-17","OBJECT_TYPE":"PAYLOAD","REV_AT_EPOCH":"130","EPHEMERIS_TYPE":"0","TLE_LINE1":"1 52880U 22062BC  22254.91667824 -.01061545  00000-0 -22851-1 0  9996","TLE_LINE2":"2 52880  53.2174 338.8769 0002346  23.0651 204.3164 15.46939248  1308","PERIAPSIS":"424.092","EPOCH":"2022-09-11T22:00:00.999936","SEMIMAJOR_AXIS":"6803.823","MEAN_MOTION_DDOT":"0.0000000000000","TIME_SYSTEM":"UTC","RCS_SIZE":"LARGE","PERIOD":"93.087","CENTER_NAME":"EARTH","ECCENTRICITY":"0.00023460","GP_ID":"212359349","REF_FRAME":"TEME","BSTAR":"-0.02285100000000","CLASSIFICATION_TYPE":"U","ARG_OF_PERICENTER":"23.0651","MEAN_ELEMENT_THEORY":"SGP4","FILE":"3569361","NORAD_CAT_ID":"52880","MEAN_ANOMALY":"204.3164","MEAN_MOTION":"15.46939248","INCLINATION":"53.2174","MEAN_MOTION_DOT":"-0.01061545","OBJECT_NAME":"STARLINK-4186","ELEMENT_SET_NO":"999","DECAY_DATE":null},{"MEAN_MOTION":"15.46643762","INCLINATION":"53.2175","MEAN_MOTION_DOT":"-0.01060935","MEAN_ANOMALY":"179.3431","ELEMENT_SET_NO":"999","DECAY_DATE":null,"OBJECT_NAME":"STARLINK-4192","GP_ID":"212359043","REF_FRAME":"TEME","ECCENTRICITY":"0.00015980","RCS_SIZE":"LARGE","PERIOD":"93.105","CENTER_NAME":"EARTH","MEAN_ELEMENT_THEORY":"SGP4","FILE":"3569361","NORAD_CAT_ID":"52881","CLASSIFICATION_TYPE":"U","BSTAR":"-0.02307800000000","ARG_OF_PERICENTER":"45.7472","EPHEMERIS_TYPE":"0","OBJECT_TYPE":"PAYLOAD","REV_AT_EPOCH":"130","TIME_SYSTEM":"UTC","TLE_LINE2":"2 52881  53.2175 338.8663 0001598  45.7472 179.3431 15.46643762  1304","TLE_LINE1":"1 52881U 22062BD  22254.91667824 -.01060935  00000-0 -23078-1 0  9991","PERIAPSIS":"425.467","MEAN_MOTION_DDOT":"0.0000000000000","SEMIMAJOR_AXIS":"6804.689","EPOCH":"2022-09-11T22:00:00.999936","OBJECT_ID":"2022-062BD","RA_OF_ASC_NODE":"338.8663","SITE":"AFETR","LAUNCH_DATE":"2022-06-17","COUNTRY_CODE":"US","APOAPSIS":"427.642"}];
